{
  "type": "FeatureCollection",
  "features": [
    {
      "type": "Feature",
      "properties": {
        "norad_id": 66640,
        "name": "STARLINK-35921",
        "group": "last-30-days",
        "lat": -50.389267155917125,
        "lon": 120.20867932387326,
        "alt_km": 427.25932690995523,
        "timestamp": "2025-12-13T03:42:10.037709+00:00",
        "meta_object_name": "STARLINK-35921",
        "meta_object_id": "2025-271Z",
        "meta_epoch": "2025-12-12T06:00:00.999648",
        "meta_mean_motion": 15.51878472,
        "meta_eccentricity": 0.00011721,
        "meta_inclination": 53.1596,
        "meta_ra_of_asc_node": 189.486,
        "meta_arg_of_pericenter": 83.8702,
        "meta_mean_anomaly": 192.9243,
        "meta_ephemeris_type": 0,
        "meta_classification_type": "U",
        "meta_norad_cat_id": 66640,
        "meta_element_set_no": 999,
        "meta_rev_at_epoch": 416,
        "meta_bstar": -0.034435637,
        "meta_mean_motion_dot": -0.01855575,
        "meta_mean_motion_ddot": 0,
        "tle_line1": "1 66640U 25271Z   25346.25001157 -.01855575  00000+0 -34436-1 0  9998",
        "tle_line2": "2 66640  53.1596 189.4860 0001172  83.8702 192.9243 15.51878472  4167"
      },
      "geometry": {
        "type": "Point",
        "coordinates": [
          120.20867932387326,
          -50.389267155917125
        ]
      }
    },
    {
      "type": "Feature",
      "properties": {
        "norad_id": 66641,
        "name": "STARLINK-35923",
        "group": "last-30-days",
        "lat": -47.28703589330698,
        "lon": 130.83613697339212,
        "alt_km": 427.19482064990007,
        "timestamp": "2025-12-13T03:42:10.037721+00:00",
        "meta_object_name": "STARLINK-35923",
        "meta_object_id": "2025-271AA",
        "meta_epoch": "2025-12-12T06:00:00.999648",
        "meta_mean_motion": 15.51882027,
        "meta_eccentricity": 0.00012424,
        "meta_inclination": 53.1592,
        "meta_ra_of_asc_node": 189.469,
        "meta_arg_of_pericenter": 93.4835,
        "meta_mean_anomaly": 190.973,
        "meta_ephemeris_type": 0,
        "meta_classification_type": "U",
        "meta_norad_cat_id": 66641,
        "meta_element_set_no": 999,
        "meta_rev_at_epoch": 416,
        "meta_bstar": -0.03446881,
        "meta_mean_motion_dot": -0.01857406,
        "meta_mean_motion_ddot": 0,
        "tle_line1": "1 66641U 25271AA  25346.25001157 -.01857406  00000+0 -34469-1 0  9990",
        "tle_line2": "2 66641  53.1592 189.4690 0001242  93.4835 190.9730 15.51882027  4167"
      },
      "geometry": {
        "type": "Point",
        "coordinates": [
          130.83613697339212,
          -47.28703589330698
        ]
      }
    },
    {
      "type": "Feature",
      "properties": {
        "norad_id": 66642,
        "name": "STARLINK-35926",
        "group": "last-30-days",
        "lat": -48.09765447172054,
        "lon": 128.47249860382232,
        "alt_km": 426.80821597733575,
        "timestamp": "2025-12-13T03:42:10.037732+00:00",
        "meta_object_name": "STARLINK-35926",
        "meta_object_id": "2025-271AB",
        "meta_epoch": "2025-12-12T06:00:00.999648",
        "meta_mean_motion": 15.51872664,
        "meta_eccentricity": 9.604e-05,
        "meta_inclination": 53.1591,
        "meta_ra_of_asc_node": 189.4738,
        "meta_arg_of_pericenter": 93.0733,
        "meta_mean_anomaly": 189.4695,
        "meta_ephemeris_type": 0,
        "meta_classification_type": "U",
        "meta_norad_cat_id": 66642,
        "meta_element_set_no": 999,
        "meta_rev_at_epoch": 392,
        "meta_bstar": -0.03356563,
        "meta_mean_motion_dot": -0.01813575,
        "meta_mean_motion_ddot": 0,
        "tle_line1": "1 66642U 25271AB  25346.25001157 -.01813575  00000+0 -33566-1 0  9997",
        "tle_line2": "2 66642  53.1591 189.4738 0000960  93.0733 189.4695 15.51872664  3921"
      },
      "geometry": {
        "type": "Point",
        "coordinates": [
          128.47249860382232,
          -48.09765447172054
        ]
      }
    },
    {
      "type": "Feature",
      "properties": {
        "norad_id": 66643,
        "name": "STARLINK-35918",
        "group": "last-30-days",
        "lat": -49.714622707448804,
        "lon": 122.96069550696846,
        "alt_km": 427.2918603987109,
        "timestamp": "2025-12-13T03:42:10.037742+00:00",
        "meta_object_name": "STARLINK-35918",
        "meta_object_id": "2025-271AC",
        "meta_epoch": "2025-12-12T06:00:00.999648",
        "meta_mean_motion": 15.51879097,
        "meta_eccentricity": 0.00012029,
        "meta_inclination": 53.1594,
        "meta_ra_of_asc_node": 189.4821,
        "meta_arg_of_pericenter": 84.917,
        "meta_mean_anomaly": 193.796,
        "meta_ephemeris_type": 0,
        "meta_classification_type": "U",
        "meta_norad_cat_id": 66643,
        "meta_element_set_no": 999,
        "meta_rev_at_epoch": 416,
        "meta_bstar": -0.034574628,
        "meta_mean_motion_dot": -0.01862243,
        "meta_mean_motion_ddot": 0,
        "tle_line1": "1 66643U 25271AC  25346.25001157 -.01862243  00000+0 -34575-1 0  9995",
        "tle_line2": "2 66643  53.1594 189.4821 0001202  84.9170 193.7960 15.51879097  4169"
      },
      "geometry": {
        "type": "Point",
        "coordinates": [
          122.96069550696846,
          -49.714622707448804
        ]
      }
    },
    {
      "type": "Feature",
      "properties": {
        "norad_id": 66644,
        "name": "STARLINK-35938",
        "group": "last-30-days",
        "lat": -48.9191545891244,
        "lon": 125.83092604537273,
        "alt_km": 426.9480741039297,
        "timestamp": "2025-12-13T03:42:10.037754+00:00",
        "meta_object_name": "STARLINK-35938",
        "meta_object_id": "2025-271AD",
        "meta_epoch": "2025-12-12T06:00:00.999648",
        "meta_mean_motion": 15.51870179,
        "meta_eccentricity": 0.00010957,
        "meta_inclination": 53.1597,
        "meta_ra_of_asc_node": 189.4782,
        "meta_arg_of_pericenter": 86.2603,
        "meta_mean_anomaly": 194.3679,
        "meta_ephemeris_type": 0,
        "meta_classification_type": "U",
        "meta_norad_cat_id": 66644,
        "meta_element_set_no": 999,
        "meta_rev_at_epoch": 416,
        "meta_bstar": -0.03365991,
        "meta_mean_motion_dot": -0.01818017,
        "meta_mean_motion_ddot": 0,
        "tle_line1": "1 66644U 25271AD  25346.25001157 -.01818017  00000+0 -33660-1 0  9990",
        "tle_line2": "2 66644  53.1597 189.4782 0001095  86.2603 194.3679 15.51870179  4161"
      },
      "geometry": {
        "type": "Point",
        "coordinates": [
          125.83092604537273,
          -48.9191545891244
        ]
      }
    },
    {
      "type": "Feature",
      "properties": {
        "norad_id": 66645,
        "name": "SHENZHOU-22",
        "group": "last-30-days",
        "lat": -30.08780436880186,
        "lon": -26.813445994862004,
        "alt_km": 391.6808997834178,
        "timestamp": "2025-12-13T03:42:10.037765+00:00",
        "meta_object_name": "SHENZHOU-22",
        "meta_object_id": "2025-272A",
        "meta_epoch": "2025-12-12T03:18:59.276448",
        "meta_mean_motion": 15.59138453,
        "meta_eccentricity": 0.0008469,
        "meta_inclination": 41.4684,
        "meta_ra_of_asc_node": 20.3596,
        "meta_arg_of_pericenter": 25.2431,
        "meta_mean_anomaly": 334.882,
        "meta_ephemeris_type": 0,
        "meta_classification_type": "U",
        "meta_norad_cat_id": 66645,
        "meta_element_set_no": 999,
        "meta_rev_at_epoch": 26357,
        "meta_bstar": 0.00037752271,
        "meta_mean_motion_dot": 0.00030211,
        "meta_mean_motion_ddot": 0,
        "tle_line1": "1 66645U 25272A   25346.13818607  .00030211  00000+0  37752-3 0  9992",
        "tle_line2": "2 66645  41.4684  20.3596 0008469  25.2431 334.8820 15.59138453263570"
      },
      "geometry": {
        "type": "Point",
        "coordinates": [
          -26.813445994862004,
          -30.08780436880186
        ]
      }
    },
    {
      "type": "Feature",
      "properties": {
        "norad_id": 66647,
        "name": "COSMOS 2597 (RODNIK-S 22)",
        "group": "last-30-days",
        "lat": 18.34791377361434,
        "lon": 103.68749396786826,
        "alt_km": 1502.1504077302861,
        "timestamp": "2025-12-13T03:42:10.037775+00:00",
        "meta_object_name": "COSMOS 2597 (RODNIK-S 22)",
        "meta_object_id": "2025-273A",
        "meta_epoch": "2025-12-12T05:34:06.807936",
        "meta_mean_motion": 12.41951335,
        "meta_eccentricity": 0.00079,
        "meta_inclination": 82.4987,
        "meta_ra_of_asc_node": 286.7642,
        "meta_arg_of_pericenter": 290.3875,
        "meta_mean_anomaly": 69.6356,
        "meta_ephemeris_type": 0,
        "meta_classification_type": "U",
        "meta_norad_cat_id": 66647,
        "meta_element_set_no": 999,
        "meta_rev_at_epoch": 207,
        "meta_bstar": 0.00015314188,
        "meta_mean_motion_dot": 3.1e-07,
        "meta_mean_motion_ddot": 0,
        "tle_line1": "1 66647U 25273A   25346.23202324  .00000031  00000+0  15314-3 0  9996",
        "tle_line2": "2 66647  82.4987 286.7642 0007900 290.3875  69.6356 12.41951335  2072"
      },
      "geometry": {
        "type": "Point",
        "coordinates": [
          103.68749396786826,
          18.34791377361434
        ]
      }
    }
  ]
}